[
    {
        "CCSDS_OMM_VERS": "3.0",
        "COMMENT": "GENERATED VIA SPACE-TRACK.ORG API",
        "CREATION_DATE": "2025-04-14T03:05:54",
        "ORIGINATOR": "18 SPCS",
        "OBJECT_NAME": "COSMOS 2522 (GLONASS)",
        "OBJECT_ID": "2017-055A",
        "CENTER_NAME": "EARTH",
        "REF_FRAME": "TEME",
        "TIME_SYSTEM": "UTC",
        "MEAN_ELEMENT_THEORY": "SGP4",
        "EPOCH": "2025-04-13T18:01:23.531520",
        "MEAN_MOTION": "2.13101829",
        "ECCENTRICITY": "0.00082290",
        "INCLINATION": "64.0768",
        "RA_OF_ASC_NODE": "206.5058",
        "ARG_OF_PERICENTER": "234.5077",
        "MEAN_ANOMALY": "125.4349",
        "EPHEMERIS_TYPE": "0",
        "CLASSIFICATION_TYPE": "U",
        "NORAD_CAT_ID": "42939",
        "ELEMENT_SET_NO": "999",
        "REV_AT_EPOCH": "5882",
        "BSTAR": "0.00000000000000",
        "MEAN_MOTION_DOT": "0.00000015",
        "MEAN_MOTION_DDOT": "0.0000000000000",
        "SEMIMAJOR_AXIS": "25508.038",
        "PERIOD": "675.733",
        "APOAPSIS": "19150.894",
        "PERIAPSIS": "19108.913",
        "OBJECT_TYPE": "PAYLOAD",
        "RCS_SIZE": "LARGE",
        "COUNTRY_CODE": "CIS",
        "LAUNCH_DATE": "2017-09-22",
        "SITE": "PKMTR",
        "DECAY_DATE": null,
        "FILE": "4701263",
        "GP_ID": "285538298",
        "TLE_LINE0": "0 COSMOS 2522 (GLONASS)",
        "TLE_LINE1": "1 42939U 17055A   25103.75096680  .00000015  00000-0  00000-0 0  9993",
        "TLE_LINE2": "2 42939  64.0768 206.5058 0008229 234.5077 125.4349  2.13101829 58823"
    }
]